1 44914U 20001A   23112.75634309  .00013870  00000-0  94786-3 0  9997
2 44914  53.0535  28.9299 0001787  75.8188 284.2999 15.06412197181294
1 44914U 20001A   23112.75634309  .00013870  00000-0  94786-3 0  9997
2 44914  53.0535  28.9299 0001787  75.8188 284.2999 15.06412197181294
1 44914U 20001A   23113.02172671  .00011709  00000-0  80325-3 0  9990
2 44914  53.0536  27.7379 0001650  78.0439 282.0735 15.06418878181335
1 44914U 20001A   23113.75152057  .00027482  00000-0  18536-2 0  9995
2 44914  53.0558  24.4609 0001317  81.3126 278.8012 15.06462301181442
1 44914U 20001A   23113.75152057  .00027482  00000-0  18536-2 0  9995
2 44914  53.0558  24.4609 0001317  81.3126 278.8012 15.06462301181442
1 44914U 20001A   23113.95054940  .00041100  00000-0  27555-2 0  9993
2 44914  53.0551  23.5676 0001109  72.1582 287.9528 15.06488182181473
1 44914U 20001A   23114.01689255  .00086961  00000-0  57660-2 0  9998
2 44914  53.0553  23.2693 0001272  84.2331 275.8803 15.06524975181482
1 44914U 20001A   23114.01689255  .00086961  00000-0  57660-2 0  9998
2 44914  53.0553  23.2693 0001272  84.2331 275.8803 15.06524975181482
1 44914U 20001A   23115.21119027  .00026612  00000-0  18059-2 0  9992
2 44914  53.0545  17.9083 0001605  91.8967 268.2206 15.06251232181661
1 44914U 20001A   23116.20639568  .00018436  00000-0  12529-2 0  9990
2 44914  53.0542  13.4407 0001376  81.0158 279.0987 15.06413500181818
1 44914U 20001A   23116.86984952  .00022252  00000-0  15062-2 0  9998
2 44914  53.0545  10.4622 0001439  83.4499 276.6654 15.06445215181914
1 44914U 20001A   23117.13522716  .00023901  00000-0  16155-2 0  9991
2 44914  53.0544   9.2709 0001413  82.6102 277.5047 15.06458428181959
1 44914U 20001A   23117.86500410  .00026199  00000-0  17667-2 0  9999
2 44914  53.0544   5.9944 0001435  84.6913 275.4240 15.06494920182061
1 44914U 20001A   23118.39576609 -.00009089  00000-0 -59153-3 0  9999
2 44914  53.0544   3.6121 0001428 102.3160 257.7989 15.06433880182147
1 44914U 20001A   23118.39576609 -.00009089  00000-0 -59153-3 0  9999
2 44914  53.0544   3.6121 0001428 102.3160 257.7989 15.06433880182147
1 44914U 20001A   23118.66116446 -.00014706  00000-0 -97095-3 0  9997
2 44914  53.0543   2.4203 0002057 104.6130 255.5087 15.06376767182184
1 44914U 20001A   23118.99290988  .00016286  00000-0  11112-2 0  9995
2 44914  53.0544   0.9318 0001597 115.8709 244.2445 15.06350596182230
1 44914U 20001A   23119.78908992  .00024210  00000-0  16394-2 0  9997
2 44914  53.0540 357.3577 0001571 118.4203 241.6944 15.06382702182354
1 44914U 20001A   23120.05447847  .00024154  00000-0  16351-2 0  9996
2 44914  53.0541 356.1664 0001536 118.3672 241.7472 15.06395552182397
1 44914U 20001A   23120.85065422  .00015900  00000-0  10844-2 0  9999
2 44914  53.0545 352.5923 0001444 122.1543 237.9587 15.06382979182514
1 44914U 20001A   23120.91700165  .00016360  00000-0  11151-2 0  9999
2 44914  53.0547 352.2942 0001478 123.2562 236.8569 15.06383798182523
1 44914U 20001A   23121.91220138  .00017357  00000-0  11807-2 0  9992
2 44914  53.0548 347.8254 0001515 123.6238 236.4896 15.06417925182671
1 44914U 20001A   23121.91220138  .00017357  00000-0  11807-2 0  9992
2 44914  53.0548 347.8254 0001515 123.6238 236.4896 15.06417925182671
1 44914U 20001A   23122.77471015  .00009804  00000-0  67594-3 0  9992
2 44914  53.0550 343.9521 0001594 109.6261 250.4900 15.06412521182809
1 44914U 20001A   23122.84105557  .00006052  00000-0  42473-3 0  9996
2 44914  53.0549 343.6524 0001574 126.1883 233.9252 15.06407873182810
1 44914U 20001A   23123.04009645  .00002585  00000-0  19234-3 0  9996
2 44914  53.0553 342.7624 0001566 123.1687 236.9452 15.06404397182842
1 44914U 20001A   23123.30547863  .00008007  00000-0  55556-3 0  9996
2 44914  53.0557 341.5747 0001547 121.0533 239.0608 15.06418560182883
1 44914U 20001A   23123.30547863  .00008007  00000-0  55556-3 0  9996
2 44914  53.0557 341.5747 0001547 121.0533 239.0608 15.06418560182883
1 44914U 20001A   23123.83623094  .00026527  00000-0  17898-2 0  9998
2 44914  53.0544 339.1898 0001070 108.2793 251.8312 15.06467161182969
1 44914U 20001A   23123.90257449  .00030462  00000-0  20508-2 0  9998
2 44914  53.0541 338.8922 0001124 108.4708 251.6403 15.06477622182971
1 44914U 20001A   23124.03526020  .00033509  00000-0  22524-2 0  9992
2 44914  53.0541 338.2960 0001155 110.7722 249.3391 15.06489618182993
1 44914U 20001A   23124.03526020  .00033509  00000-0  22524-2 0  9992
2 44914  53.0541 338.2960 0001155 110.7722 249.3391 15.06489618182993
1 44914U 20001A   23124.89778308  .00019351  00000-0  13153-2 0  9991
2 44914  53.0533 334.4248 0001188  72.0164 288.0954 15.06376174183120
1 44914U 20001A   23124.89778308  .00019351  00000-0  13153-2 0  9991
2 44914  53.0533 334.4248 0001188  72.0164 288.0954 15.06376174183120
1 44914U 20001A   23125.56126054  .00019961  00000-0  13555-2 0  9994
2 44914  53.0531 331.4434 0001115  87.1906 272.9211 15.06391194183221
1 44914U 20001A   23125.82664842  .00013790  00000-0  94291-3 0  9996
2 44914  53.0528 330.2535 0001233  74.6306 285.4819 15.06396928183269
1 44914U 20001A   23125.95934168  .00014024  00000-0  95843-3 0  9996
2 44914  53.0528 329.6578 0001203  70.7791 289.3328 15.06401313183285
1 44914U 20001A   23125.95934168  .00014024  00000-0  95843-3 0  9996
2 44914  53.0528 329.6578 0001203  70.7791 289.3328 15.06401313183285
1 44914U 20001A   23127.81705043  .00020032  00000-0  13586-2 0  9990
2 44914  53.0537 321.3167 0001140  82.5453 277.5665 15.06434567183565
1 44914U 20001A   23127.81705043  .00020032  00000-0  13586-2 0  9990
2 44914  53.0537 321.3167 0001140  82.5453 277.5665 15.06434567183565
1 44914U 20001A   23128.81226243  .00023778  00000-0  16104-2 0  9990
2 44914  53.0537 316.8493 0000857 103.4461 256.6624 15.06386247183713
1 44914U 20001A   23128.81226243  .00023778  00000-0  16104-2 0  9990
2 44914  53.0537 316.8493 0000857 103.4461 256.6624 15.06386247183713
1 44914U 20001A   23130.20553744  .00012261  00000-0  84010-3 0  9992
2 44914  53.0529 310.5933 0000500  53.5616 306.5419 15.06421840183925
1 44914U 20001A   23130.80267334  .00027226  00000-0  18406-2 0  9997
2 44914  53.0530 307.9146 0000829  63.1239 296.9835 15.06380571184015
1 44914U 20001A   23131.20075642  .00023729  00000-0  16067-2 0  9996
2 44914  53.0529 306.1279 0000792  67.8595 292.2478 15.06396830184079
1 44914U 20001A   23131.73152602  .00026398  00000-0  17833-2 0  9993
2 44914  53.0527 303.7454 0000806  62.4562 297.6509 15.06424891184158
1 44914U 20001A   23132.19595379  .00011708  00000-0  80338-3 0  9996
2 44914  53.0528 301.6598 0000731  71.8263 288.2806 15.06408956184222
1 44914U 20001A   23132.72673826  .00024985  00000-0  16911-2 0  9995
2 44914  53.0531 299.2771 0000617  83.1524 276.9535 15.06382563184307
1 44914U 20001A   23132.72673826  .00024985  00000-0  16911-2 0  9995
2 44914  53.0531 299.2771 0000617  83.1524 276.9535 15.06382563184307
1 44914U 20001A   23133.19116732  .00028491  00000-0  19236-2 0  9994
2 44914  53.0533 297.1919 0000616  83.4588 276.6471 15.06405118184377
1 44914U 20001A   23133.72193438  .00025621  00000-0  17312-2 0  9996
2 44914  53.0537 294.8093 0000634  76.8602 283.2457 15.06431769184459
1 44914U 20001A   23134.58444954  .00010376  00000-0  71477-3 0  9997
2 44914  53.0537 290.9367 0000840  87.7140 272.3946 15.06381763184581
1 44914U 20001A   23134.58444954  .00010376  00000-0  71477-3 0  9997
2 44914  53.0537 290.9367 0000840  87.7140 272.3946 15.06381763184581
1 44914U 20001A   23134.84984008  .00014763  00000-0  10083-2 0  9994
2 44914  53.0539 289.7463 0000942  77.2020 282.9074 15.06386274184626
1 44914U 20001A   23135.51330531  .00016234  00000-0  11058-2 0  9993
2 44914  53.0542 286.7677 0000937  78.6503 281.4591 15.06414196184723
1 44914U 20001A   23135.57965139  .00019985  00000-0  13561-2 0  9994
2 44914  53.0536 286.4696 0000964  80.7584 279.3514 15.06417990184734
1 44914U 20001A   23135.71234226  .00020231  00000-0  13722-2 0  9991
2 44914  53.0536 285.8745 0000947  76.8149 283.2945 15.06425910184751
1 44914U 20001A   23136.37581378  .00013379  00000-0  91525-3 0  9990
2 44914  53.0531 282.9010 0000758 104.9018 255.2055 15.06405093184859
1 44914U 20001A   23136.37581378  .00013379  00000-0  91525-3 0  9990
2 44914  53.0531 282.9010 0000758 104.9018 255.2055 15.06405093184859
1 44914U 20001A   23136.70755302  .00002583  00000-0  19230-3 0  9995
2 44914  53.0538 281.4053 0002087  88.6442 271.4786 15.06394497184905
1 44914U 20001A   23136.70755302  .00002583  00000-0  19230-3 0  9995
2 44914  53.0538 281.4053 0002087  88.6442 271.4786 15.06394497184905
1 44914U 20001A   23137.70275384  .00012229  00000-0  83813-3 0  9999
2 44914  53.0532 276.9368 0000827  94.7445 265.3638 15.06412903185056
1 44914U 20001A   23138.10083853  .00001344  00000-0  10911-3 0  9997
2 44914  53.0522 275.1561 0001077  68.1336 291.9767 15.06400495185111
1 44914U 20001A   23138.49892387 -.00000752  00000-0 -31651-4 0  9998
2 44914  53.0527 273.3627 0000897  83.6903 276.4188 15.06389436185172
1 44914U 20001A   23138.56527008  .00001089  00000-0  91990-4 0  9995
2 44914  53.0532 273.0655 0000711  87.0348 273.0722 15.06390234185188
1 44914U 20001A   23138.76431231  .00006693  00000-0  46785-3 0  9996
2 44914  53.0530 272.1721 0000772  77.3470 282.7605 15.06392197185216
1 44914U 20001A   23139.36143445  .00018680  00000-0  12693-2 0  9999
2 44914  53.0531 269.4918 0000804  67.1739 292.9335 15.06409906185305
1 44914U 20001A   23139.36143445  .00018680  00000-0  12693-2 0  9999
2 44914  53.0531 269.4918 0000804  67.1739 292.9335 15.06409906185305
1 44914U 20001A   23140.35663378  .00010954  00000-0  75283-3 0  9993
2 44914  53.0539 265.0234 0000746  62.9304 297.1761 15.06414342185458
1 44914U 20001A   23140.55567375  .00005415  00000-0  38201-3 0  9990
2 44914  53.0542 264.1294 0000880  70.2965 289.8119 15.06409501185481
1 44914U 20001A   23140.55567375  .00005415  00000-0  38201-3 0  9990
2 44914  53.0542 264.1294 0000880  70.2965 289.8119 15.06409501185481
